NAME=NOAA 11 [-]
NICKNAME=NOAA 11 [-]
TLE1=1 19531U 88089A   09300.30465570  .00000190  00000-0  12099-3 0  8278
TLE2=2 19531  98.7807  28.1941 0012276  91.2784 268.9824 14.14906038 88207

[25736]
VERSION=1.1
NAME=MUBLCOM
NICKNAME=MUBLCOM
TLE1=1 25736U 99026B   09300.39922250  .00000231  00000-0  77739-4 0  8647
TLE2=2 25736  97.7685 220.3194 0006468  18.8989 341.2435 14.44594916549888

[31118]
VERSION=1.1
NAME=SAUDISAT 3
NICKNAME=SAUDISAT 3
TLE1=1 31118U 07012B   09301.13804871 -.00000004  00000-0  76542-5 0  8318
TLE2=2 31118  97.9995  11.7926 0015507 167.8531 192.3057 14.68025845135682

[29272]
VERSION=1.1
NAME=JCSAT-3A
NICKNAME=JCSAT-3A
TLE1=1 29272U 06033A   09300.57666420 -.00000341  00000-0  10000-3 0  5654
TLE2=2 29272   0.0076 289.2799 0002270 226.2682 216.1690  1.00273640 11833

[32253]
VERSION=1.1
NAME=INTELSAT 11 (IS-11)
NICKNAME=INTELSAT 11 (IS-11)
TLE1=1 32253U 07044B   09300.83610487 -.00000264  00000-0  10000-3 0  2900
TLE2=2 32253   0.0480  92.1387 0002067  74.5361 127.6619  1.00270848  7593

[7646]
VERSION=1.1
NAME=STARLETTE
NICKNAME=STARLETTE
TLE1=1 07646U 75010A   09300.83729416 -.00000185  00000-0 -32557-4 0   924
TLE2=2 07646  49.8257 327.3741 0205909 150.9983 210.2536 13.82271751754032

[21610]
VERSION=1.1
NAME=ARIANE 40 R/B
NICKNAME=ARIANE 40 R/B
TLE1=1 21610U 91050F   09300.48883981  .00000094  00000-0  44907-4 0  1584
TLE2=2 21610  98.6541 267.0597 0003045 342.4958  17.6126 14.39103979958638

[16496]
VERSION=1.1
NAME=SL-14 R/B
NICKNAME=SL-14 R/B
TLE1=1 16496U 86006B   09300.86834142  .00000064  00000-0  50526-5 0  1146
TLE2=2 16496  82.5205  99.6212 0017983 264.9568  94.9601 14.82540299283889

[25115]
VERSION=1.1
NAME=ORBCOMM FM12 [+]
NICKNAME=ORBCOMM FM12 [+]
TLE1=1 25115U 97084D   09300.53370732  .00000006  00000-0  51743-4 0   131
TLE2=2 25115  45.0170  94.1783 0004805  19.4245 340.6797 14.34401125619251

[33051]
VERSION=1.1
NAME=CHINASAT 9
NICKNAME=CHINASAT 9
TLE1=1 33051U 08028A   09300.93018156 -.00000243  00000-0  10000-3 0  4039
TLE2=2 33051   0.0111 207.3357 0004511   0.6993 255.4703  1.00271654  5100

[27597]
VERSION=1.1
NAME=MIDORI II (ADEOS-II)
NICKNAME=MIDORI II (ADEOS-II)
TLE1=1 27597U 02056A   09300.73555215 -.00000095  00000-0 -22234-4 0  9856
TLE2=2 27597  98.4585   0.8706 0000066  15.2478 344.8698 14.26179616357685

[20438]
VERSION=1.1
NAME=UOSAT 4 (UO-15)
NICKNAME=UO-15
TLE1=1 20438U 90005C   09300.89544015 -.00000001  00000-0  15899-4 0  5443
TLE2=2 20438  98.4157 247.7545 0009732 160.5096 199.6459 14.30452203 31444

[11416]
VERSION=1.1
NAME=NOAA 6 [P]
NICKNAME=NOAA 6 [P]
TLE1=1 11416U 79057A   09301.09222672  .00000026  00000-0  25631-4 0   107
TLE2=2 11416  98.4063 311.9386 0009506 227.3414 132.6968 14.31939583580733

[6073]
VERSION=1.1
NAME=COSMOS 482 DESCENT CRAFT
NICKNAME=COSMOS 482 DESCENT CRAFT
TLE1=1 06073U 72023E   09300.87325849  .00015940  30700-5  11915-3 0  3727
TLE2=2 06073  52.1035  72.7348 2198003 357.4106   1.6714 11.19313242 30193

[29520]
VERSION=1.1
NAME=XM-4 (BLUES)
NICKNAME=XM-4 (BLUES)
TLE1=1 29520U 06049A   09300.46509355 -.00000022  00000-0  10000-3 0  4349
TLE2=2 29520   0.0083 225.7702 0000535 215.1645   7.5014  1.00272736 11077

[33749]
VERSION=1.1
NAME=NSS-9
NICKNAME=NSS-9
TLE1=1 33749U 09008A   09300.31153245  .00000074  00000-0  10000-3 0  1356
TLE2=2 33749   0.0571  72.7982 0001170 105.7210 152.4376  1.00273636  2627

[25286]
VERSION=1.1
NAME=IRIDIUM 63 [+]
NICKNAME=IRIDIUM 63 [+]
TLE1=1 25286U 98021B   09300.45599897 -.00000026  00000-0 -16498-4 0  7452
TLE2=2 25286  86.3942 309.9813 0002462  83.1054 277.0428 14.34220460605169

[32264]
VERSION=1.1
NAME=GLOBALSTAR M070
NICKNAME=GLOBALSTAR M070
TLE1=1 32264U 07048B   09300.19931472 -.00000086  00000-0  10000-3 0  6495
TLE2=2 32264  51.9775 247.8577 0000994 357.9927   2.0931 12.62261966 93296

[25395]
VERSION=1.1
NAME=FASAT B
NICKNAME=FASAT B
TLE1=1 25395U 98043B   09300.53936517  .00000012  00000-0  22917-4 0  5814
TLE2=2 25395  98.3268 324.8174 0002812 159.7563 200.3742 14.24365813587285

[23768]
VERSION=1.1
NAME=KOREASAT 2
NICKNAME=KOREASAT 2
TLE1=1 23768U 96003A   09301.01930933 -.00000078  00000-0  10000-3 0  8769
TLE2=2 23768   2.6859  75.6743 0000215 248.8336 153.7623  1.00271865 50486

[21726]
VERSION=1.1
NAME=ANIK E1
NICKNAME=ANIK E1
TLE1=1 21726U 91067A   09298.58815032 -.00000122  00000-0  10000-3 0  2084
TLE2=2 21726   6.0848  68.8706 0005845 172.0859 187.9295  0.99172676 56992

[28254]
VERSION=1.1
NAME=FORMOSAT-2 (ROCSAT 2)
NICKNAME=FORMOSAT-2 (ROCSAT 2)
TLE1=1 28254U 04018A   09301.18432743 -.00000106  00000-0 -40868-4 0  1721
TLE2=2 28254  99.1208 359.5245 0000686 171.0630 189.0560 14.00737750278148

[33316]
VERSION=1.1
NAME=RAPIDEYE 4
NICKNAME=RAPIDEYE 4
TLE1=1 33316U 08040E   09301.15225996  .00000043  00000-0  12647-4 0  2950
TLE2=2 33316  97.9664  24.7698 0011425 294.5153  65.4846 14.79919611 62815

[26360]
VERSION=1.1
NAME=GPS BIIR-04 (PRN 20)
NICKNAME=GPS BIIR-04 (PRN 20)
TLE1=1 26360U 00025A   09299.74356423 -.00000029  00000-0  10000-3 0  6552
TLE2=2 26360  53.8581 271.2423 0036707  73.7466 286.6494  2.00554186 69382

[22871]
VERSION=1.1
NAME=INTELSAT 701 (IS-701)
NICKNAME=INTELSAT 701 (IS-701)
TLE1=1 22871U 93066A   09298.32570299  .00000051  00000-0  10000-3 0  4264
TLE2=2 22871   0.0097   6.3969 0002435 167.3843 157.3407  1.00272327 58506

[24872]
VERSION=1.1
NAME=IRIDIUM 18 [+]
NICKNAME=IRIDIUM 18 [+]
TLE1=1 24872U 97034D   09300.49844426 -.00000022  00000-0 -14888-4 0  8100
TLE2=2 24872  86.3934 107.9340 0002334  80.8014 279.3436 14.34213997644062

[26958]
VERSION=1.1
NAME=PROBA 1
NICKNAME=PROBA 1
TLE1=1 26958U 01049B   09301.10858451 -.00000217  00000-0 -15373-4 0  1110
TLE2=2 26958  97.6068 358.9204 0080401 287.3798  71.8669 14.89697350435614

[23088]
VERSION=1.1
NAME=SL-16 R/B
NICKNAME=SL-16 R/B
TLE1=1 23088U 94023B   09300.28636668 -.00000237  00000-0 -98981-4 0  6592
TLE2=2 23088  71.0017  16.5807 0003164 338.9403  21.1581 14.14458647801023

[25171]
VERSION=1.1
NAME=IRIDIUM 54 [+]
NICKNAME=IRIDIUM 54 [+]
TLE1=1 25171U 98010C   09300.46336271  .00000122  00000-0  36504-4 0  7421
TLE2=2 25171  86.3924  76.2823 0002163  84.0760 276.0678 14.34214163612076

[25418]
VERSION=1.1
NAME=ORBCOMM FM15 [+]
NICKNAME=ORBCOMM FM15 [+]
TLE1=1 25418U 98046F   09300.54883558 -.00000066  00000-0  29442-4 0  2255
TLE2=2 25418  45.0021   6.3508 0002540 281.6092  78.4442 14.27663166585600

[22245]
VERSION=1.1
NAME=GORIZONT 27
NICKNAME=GORIZONT 27
TLE1=1 22245U 92082A   09299.70262551 -.00000352  00000-0  10000-3 0  4858
TLE2=2 22245  11.5334  43.4729 0015269 225.0409 134.8157  1.00168360 66262

[29252]
VERSION=1.1
NAME=GENESIS 1
NICKNAME=GENESIS 1
TLE1=1 29252U 06029A   09300.96529754  .00000334  00000-0  37356-4 0  8971
TLE2=2 29252  64.5114 290.3545 0016737 188.6139 171.4722 15.03444771180875

[31113]
VERSION=1.1
NAME=HAIYANG-1B
NICKNAME=HAIYANG-1B
TLE1=1 31113U 07010A   09301.14543347  .00000042  00000-0  33450-4 0  8502
TLE2=2 31113  98.5332  12.1359 0014393  38.1848 322.0359 14.29438834132932
